$$SOE
2461281.500000000, A.D. 2026-Aug-29 00:00:00.0000, -4.469805158742080E+09, -3.849865969893618E+09, 3.900671225313647E+08,
2461288.500000000, A.D. 2026-Sep-05 00:00:00.0000, -4.467858999910857E+09, -3.851740307260645E+09, 3.905099915343711E+08,
2461295.500000000, A.D. 2026-Sep-12 00:00:00.0000, -4.465911761651914E+09, -3.853613787856533E+09, 3.909527684916556E+08,
2461302.500000000, A.D. 2026-Sep-19 00:00:00.0000, -4.463963445861508E+09, -3.855486412118575E+09, 3.913954534416089E+08,
2461309.500000000, A.D. 2026-Sep-26 00:00:00.0000, -4.462014054057721E+09, -3.857358181066285E+09, 3.918380463745317E+08,
2461316.500000000, A.D. 2026-Oct-03 00:00:00.0000, -4.460063587310200E+09, -3.859229096066033E+09, 3.922805472423148E+08,
2461323.500000000, A.D. 2026-Oct-10 00:00:00.0000, -4.458112046256511E+09, -3.861099158688370E+09, 3.927229559675608E+08,
2461330.500000000, A.D. 2026-Oct-17 00:00:00.0000, -4.456159431153419E+09, -3.862968370638891E+09, 3.931652724490390E+08,
2461337.500000000, A.D. 2026-Oct-24 00:00:00.0000, -4.454205741938735E+09, -3.864836733785197E+09, 3.936074965594990E+08,
2461344.500000000, A.D. 2026-Oct-31 00:00:00.0000, -4.452250978204942E+09, -3.866704250346565E+09, 3.940496281214368E+08,
2461351.500000000, A.D. 2026-Nov-07 00:00:00.0000, -4.450295138745546E+09, -3.868570923172268E+09, 3.944916668359561E+08,
2461358.500000000, A.D. 2026-Nov-14 00:00:00.0000, -4.448338220473280E+09, -3.870436755221099E+09, 3.949336122190082E+08,
2461365.500000000, A.D. 2026-Nov-21 00:00:00.0000, -4.446380218521897E+09, -3.872301747560232E+09, 3.953754637671413E+08,
2461372.500000000, A.D. 2026-Nov-28 00:00:00.0000, -4.444421128529660E+09, -3.874165898891479E+09, 3.958172211987391E+08,
2461379.500000000, A.D. 2026-Dec-05 00:00:00.0000, -4.442460947484977E+09, -3.876029207261284E+09, 3.962588843854184E+08,
2461386.500000000, A.D. 2026-Dec-12 00:00:00.0000, -4.440499672969274E+09, -3.877891670843454E+09, 3.967004532129884E+08,
2461393.500000000, A.D. 2026-Dec-19 00:00:00.0000, -4.438537302684361E+09, -3.879753287788210E+09, 3.971419275458484E+08,
2461400.500000000, A.D. 2026-Dec-26 00:00:00.0000, -4.436573834406718E+09, -3.881614056005639E+09, 3.975833072371705E+08,
2461407.500000000, A.D. 2027-Jan-02 00:00:00.0000, -4.434609266093126E+09, -3.883473973074560E+09, 3.980245921441400E+08,
2461414.500000000, A.D. 2027-Jan-09 00:00:00.0000, -4.432643596021320E+09, -3.885333036256848E+09, 3.984657821392968E+08,
2461421.500000000, A.D. 2027-Jan-16 00:00:00.0000, -4.430676822931371E+09, -3.887191242608560E+09, 3.989068771155267E+08,
2461428.500000000, A.D. 2027-Jan-23 00:00:00.0000, -4.428708946123201E+09, -3.889048589227747E+09, 3.993478769772832E+08,
2461435.500000000, A.D. 2027-Jan-30 00:00:00.0000, -4.426739965324144E+09, -3.890905073686889E+09, 3.997887815968664E+08,
2461442.500000000, A.D. 2027-Feb-06 00:00:00.0000, -4.424769879903419E+09, -3.892760694310095E+09, 4.002295907245090E+08,
2461449.500000000, A.D. 2027-Feb-13 00:00:00.0000, -4.422798687895418E+09, -3.894615449075517E+09, 4.006703039940367E+08,
2461456.500000000, A.D. 2027-Feb-20 00:00:00.0000, -4.420826387196997E+09, -3.896469333934067E+09, 4.011109211760798E+08,
2461463.500000000, A.D. 2027-Feb-27 00:00:00.0000, -4.418852977543796E+09, -3.898322343758176E+09, 4.015514422879877E+08,
2461470.500000000, A.D. 2027-Mar-06 00:00:00.0000, -4.416878460248104E+09, -3.900174473998003E+09, 4.019918674405463E+08,
2461477.500000000, A.D. 2027-Mar-13 00:00:00.0000, -4.414902837298800E+09, -3.902025720995678E+09, 4.024321967355602E+08,
2461484.500000000, A.D. 2027-Mar-20 00:00:00.0000, -4.412926110952931E+09, -3.903876081792188E+09, 4.028724302495017E+08,
2461491.500000000, A.D. 2027-Mar-27 00:00:00.0000, -4.410948283616977E+09, -3.905725553975874E+09, 4.033125680396895E+08,
2461498.500000000, A.D. 2027-Apr-03 00:00:00.0000, -4.408969357814890E+09, -3.907574135620264E+09, 4.037526101503870E+08,
2461505.500000000, A.D. 2027-Apr-10 00:00:00.0000, -4.406989336181668E+09, -3.909421825288165E+09, 4.041925566150010E+08,
2461512.500000000, A.D. 2027-Apr-17 00:00:00.0000, -4.405008221460401E+09, -3.911268622116366E+09, 4.046324074511557E+08,
2461519.500000000, A.D. 2027-Apr-24 00:00:00.0000, -4.403026016423551E+09, -3.913114526043066E+09, 4.050721626362560E+08,
2461526.500000000, A.D. 2027-May-01 00:00:00.0000, -4.401042723418860E+09, -3.914959538150243E+09, 4.055118220383396E+08,
2461533.500000000, A.D. 2027-May-08 00:00:00.0000, -4.399058343232482E+09, -3.916803660372565E+09, 4.059513853351839E+08,
2461540.500000000, A.D. 2027-May-15 00:00:00.0000, -4.397072874766191E+09, -3.918646893619408E+09, 4.063908521369061E+08,
2461547.500000000, A.D. 2027-May-22 00:00:00.0000, -4.395086317092565E+09, -3.920489236901581E+09, 4.068302222437184E+08,
2461554.500000000, A.D. 2027-May-29 00:00:00.0000, -4.393098670532189E+09, -3.922330688931016E+09, 4.072694956111181E+08,
2461561.500000000, A.D. 2027-Jun-05 00:00:00.0000, -4.391109935868059E+09, -3.924171249061680E+09, 4.077086721973987E+08,
2461568.500000000, A.D. 2027-Jun-12 00:00:00.0000, -4.389120113704697E+09, -3.926010917139893E+09, 4.081477519129894E+08,
2461575.500000000, A.D. 2027-Jun-19 00:00:00.0000, -4.387129204303006E+09, -3.927849693199096E+09, 4.085867346257293E+08,
2461582.500000000, A.D. 2027-Jun-26 00:00:00.0000, -4.385137207611465E+09, -3.929687577260356E+09, 4.090256201752625E+08,
2461589.500000000, A.D. 2027-Jul-03 00:00:00.0000, -4.383144123361501E+09, -3.931524569230319E+09, 4.094644083853345E+08,
2461596.500000000, A.D. 2027-Jul-10 00:00:00.0000, -4.381149951190228E+09, -3.933360668887895E+09, 4.099030990715621E+08,
2461603.500000000, A.D. 2027-Jul-17 00:00:00.0000, -4.379154690754188E+09, -3.935195875998517E+09, 4.103416920384138E+08,
2461610.500000000, A.D. 2027-Jul-24 00:00:00.0000, -4.377158341677665E+09, -3.937030190618813E+09, 4.107801870461671E+08,
2461617.500000000, A.D. 2027-Jul-31 00:00:00.0000, -4.375160902924155E+09, -3.938863613356134E+09, 4.112185837295907E+08,
2461624.500000000, A.D. 2027-Aug-07 00:00:00.0000, -4.373162371791710E+09, -3.940696144431248E+09, 4.116568815810504E+08,
2461631.500000000, A.D. 2027-Aug-14 00:00:00.0000, -4.371162744833255E+09, -3.942527781797484E+09, 4.120950801885114E+08,
2461638.500000000, A.D. 2027-Aug-21 00:00:00.0000, -4.369162020083694E+09, -3.944358521680530E+09, 4.125331793968315E+08,
2461645.500000000, A.D. 2027-Aug-28 00:00:00.0000, -4.367160197162717E+09, -3.946188360335647E+09, 4.129711791759689E+08,
2461652.500000000, A.D. 2027-Sep-04 00:00:00.0000, -4.365157276434466E+09, -3.948017294520012E+09, 4.134090795088036E+08,
2461659.500000000, A.D. 2027-Sep-11 00:00:00.0000, -4.363153258619369E+09, -3.949845321341484E+09, 4.138468803723052E+08,
2461666.500000000, A.D. 2027-Sep-18 00:00:00.0000, -4.361148144724957E+09, -3.951672438133850E+09, 4.142845817464504E+08,
2461673.500000000, A.D. 2027-Sep-25 00:00:00.0000, -4.359141936066820E+09, -3.953498642435996E+09, 4.147221836232991E+08,
2461680.500000000, A.D. 2027-Oct-02 00:00:00.0000, -4.357134634304599E+09, -3.955323932047056E+09, 4.151596860113220E+08,
2461687.500000000, A.D. 2027-Oct-09 00:00:00.0000, -4.355126241470540E+09, -3.957148305161670E+09, 4.155970889323025E+08,
2461694.500000000, A.D. 2027-Oct-16 00:00:00.0000, -4.353116759927311E+09, -3.958971760639815E+09, 4.160343924003139E+08,
2461701.500000000, A.D. 2027-Oct-23 00:00:00.0000, -4.351106191995093E+09, -3.960794298416483E+09, 4.164715963582718E+08,
2461708.500000000, A.D. 2027-Oct-30 00:00:00.0000, -4.349094538873087E+09, -3.962615919440560E+09, 4.169087005874419E+08,
2461715.500000000, A.D. 2027-Nov-06 00:00:00.0000, -4.347081800018764E+09, -3.964436624014446E+09, 4.173457047886932E+08,
2461722.500000000, A.D. 2027-Nov-13 00:00:00.0000, -4.345067974970213E+09, -3.966256410610434E+09, 4.177826088478591E+08,
2461729.500000000, A.D. 2027-Nov-20 00:00:00.0000, -4.343053064709681E+09, -3.968075277349526E+09, 4.182194128403997E+08,
2461736.500000000, A.D. 2027-Nov-27 00:00:00.0000, -4.341037070950688E+09, -3.969893223178115E+09, 4.186561168693054E+08,
2461743.500000000, A.D. 2027-Dec-04 00:00:00.0000, -4.339019995372268E+09, -3.971710247828535E+09, 4.190927209965556E+08,
2461750.500000000, A.D. 2027-Dec-11 00:00:00.0000, -4.337001839350903E+09, -3.973526351527339E+09, 4.195292252398982E+08,
2461757.500000000, A.D. 2027-Dec-18 00:00:00.0000, -4.334982603915164E+09, -3.975341534790330E+09, 4.199656295821068E+08,
2461764.500000000, A.D. 2027-Dec-25 00:00:00.0000, -4.332962289771090E+09, -3.977155798306414E+09, 4.204019339786732E+08,
2461771.500000000, A.D. 2028-Jan-01 00:00:00.0000, -4.330940897356839E+09, -3.978969142895546E+09, 4.208381383614447E+08,
$$EOE